NSS-12                  
1 36032U 09058A   22012.10049498  .00000083  00000+0  00000+0 0  9997
2 36032   0.0110 351.6622 0002914 305.2010 267.8618  1.00273133 44691
THOR 6                  
1 36033U 09058B   22012.35028453  .00000002  00000+0  00000+0 0  9994
2 36033   0.0356 240.2579 0002348  77.7550 279.0425  1.00272664 44755
INTELSAT 14 (IS-14)     
1 36097U 09064A   22012.19791414 -.00000262  00000+0  00000+0 0  9996
2 36097   0.0188  50.2511 0002751 249.1379 198.5144  1.00271209 44482
EUTELSAT 36B            
1 36101U 09065A   22011.83174354  .00000166  00000+0  00000+0 0  9993
2 36101   0.0639  10.2542 0004671 280.0468 156.3016  1.00270767 44506
INTELSAT 15 (IS-15)     
1 36106U 09067A   22012.43924719 -.00000172  00000+0  00000+0 0  9993
2 36106   0.0147 334.9150 0002378 318.4430  61.8183  1.00270506 44396
WGS F3 (USA 211)        
1 36108U 09068A   22012.09918304  .00000063  00000+0  00000+0 0  9999
2 36108   0.1183  96.4050 0000612 154.5694  76.0808  1.00269752 44290
DIRECTV 12              
1 36131U 09075A   22012.11462068 -.00000092  00000+0  00000+0 0  9990
2 36131   0.0479 203.9932 0000242 153.4498  52.6742  1.00273050 44176
BEIDOU 3                
1 36287U 10001A   22011.94785931 -.00000271  00000+0  00000+0 0  9999
2 36287   1.8179  46.0328 0001562  53.3079 133.7128  1.00273549 43944
RADUGA-1M 2             
1 36358U 10002A   22012.16229904 -.00000172  00000+0  00000+0 0  9997
2 36358   0.0736 253.8124 0002909  20.7470 340.4879  1.00272123 43794
SDO                     
1 36395U 10005A   22011.32389979 -.00000076  00000+0  00000+0 0  9990
2 36395  31.3553 111.7828 0001735 221.9918 151.5407  1.00269473 43848
INTELSAT 16 (IS-16)     
1 36397U 10006A   22012.11994100 -.00000233  00000+0  00000+0 0  9994
2 36397   0.0110 336.2721 0002122 310.7394 151.5485  1.00271165 43504
GOES 15                 
1 36411U 10008A   22012.64883381  .00000068  00000+0  00000+0 0  9994
2 36411   0.1042 271.1889 0000776  45.2330 260.9219  1.00269598 43452
ECHOSTAR 14             
1 36499U 10010A   22011.68075731  .00000011  00000+0  00000+0 0  9996
2 36499   0.0199  32.8355 0003059 258.4589 306.0357  1.00270497 30339
SES-1                   
1 36516U 10016A   22012.25648576 -.00000102  00000+0  00000+0 0  9991
2 36516   0.0093  36.8725 0002607 257.2614 168.9070  1.00272250 42925
ASTRA 3B                
1 36581U 10021A   22012.49855562  .00000149  00000+0  00000+0 0  9990
2 36581   0.0462  50.1131 0004192 228.9152  35.9039  1.00271089 42433
COMSATBW-2              
1 36582U 10021B   22012.07341208  .00000101  00000+0  00000+0 0  9990
2 36582   0.0223  78.9745 0002365 226.9495 205.2480  1.00278777 42776
BADR-5                  
1 36592U 10025A   22012.21204352  .00000157  00000+0  00000+0 0  9990
2 36592   0.0247 126.7332 0001929 107.0401 340.2260  1.00273622 42688
COMS 1                  
1 36744U 10032A   22011.79980061 -.00000334  00000+0  00000+0 0  9995
2 36744   0.6819  96.2014 0001067 197.9948 233.1643  1.00270963 34875
ARABSAT-5A              
1 36745U 10032B   22012.06944161  .00000165  00000+0  00000+0 0  9999
2 36745   0.0518  32.4828 0002361 250.3001 244.2273  1.00270760 42419
ECHOSTAR 15             
1 36792U 10034A   22011.96148855 -.00000270  00000+0  00000+0 0  9995
2 36792   0.0351  78.9548 0002368 182.6159 134.3448  1.00272232 42114
BEIDOU 5                
1 36828U 10036A   22011.75466766 -.00000049  00000+0  00000+0 0  9992
2 36828  54.1865 177.6685 0027068 177.8109 134.1119  1.00292075 42006
NILESAT 201             
1 36830U 10037A   22012.56423102 -.00000045  00000+0  00000+0 0  9999
2 36830   0.0532 198.1895 0003356 107.4153   2.5238  1.00271258 42070
RASCOM-QAF 1R           
1 36831U 10037B   22012.56632425  .00000031  00000+0  00000+0 0  9994
2 36831   0.0398  95.6675 0006981 189.1022  34.0168  1.00271255 42087
AEHF-1 (USA 214)        
1 36868U 10039A   22012.19291861  .00000034  00000+0  00000+0 0  9993
2 36868   4.1463  88.9051 0000566  15.5999  80.6002  1.00274353 42228
CHINASAT 6A (ZX 6A)     
1 37150U 10042A   22011.94471944 -.00000344  00000+0  00000+0 0  9991
2 37150   0.0555 110.5633 0001206 344.3055 121.2977  1.00260544 41685
QZS-1 (MICHIBIKI-1)     
1 37158U 10045A   22011.62666755 -.00000144  00000+0  00000+0 0  9991
2 37158  42.1759 135.5633 0759854 270.4346  74.0066  1.00270320 41513
XM-5                    
1 37185U 10053A   22012.08671178 -.00000011  00000+0  00000+0 0  9999
2 37185   0.0529 143.9337 0000933 313.6684 289.9495  1.00272129 41238
BSAT-3B                 
1 37207U 10056B   22012.41482866 -.00000338  00000+0  00000+0 0  9990
2 37207   0.0737 306.9488 0004804   6.2891  57.8162  1.00270813 41060
BEIDOU 6                
1 37210U 10057A   22011.87992811 -.00000102  00000+0  00000+0 0  9999
2 37210   0.8893  50.3721 0006086 163.0012  14.6797  1.00273533 41063
SKYTERRA 1              
1 37218U 10061A   22012.11496955 -.00000108  00000+0  00000+0 0  9994
2 37218   2.2895  26.4589 0002260 262.0413 123.1434  1.00271918 41014
ZHONGXING-20A           
1 37234U 10064A   22012.68660623 -.00000340  00000+0  00000+0 0  9990
2 37234   2.2616  90.3760 0002728 226.1383 169.2243  1.00270154 40828
HYLAS 1                 
1 37237U 10065A   22012.52896505 -.00000215  00000+0  00000+0 0  9998
2 37237   1.5271  91.8950 0002384 199.1434 290.5890  1.00273073 40796
INTELSAT 17 (IS-17)     
1 37238U 10065B   22012.14828696  .00000010  00000+0  00000+0 0  9995
2 37238   0.0114 101.9628 0002728 205.0359 283.9952  1.00271996 40705
BEIDOU 7                
1 37256U 10068A   22011.90273177 -.00000205  00000+0  00000+0 0  9996
2 37256  50.4913 291.5173 0017960 191.3360  58.8300  1.00298955 40570
EUTELSAT KA-SAT 9A      
1 37258U 10069A   22011.84285506  .00000073  00000+0  00000+0 0  9993
2 37258   0.0674 257.7195 0000985 287.3932 238.6351  1.00269694 27774
HISPASAT 30W-5          
1 37264U 10070A   22012.41622155 -.00000204  00000+0  00000+0 0  9998
2 37264   0.0139 111.5229 0002230 171.8775 308.2894  1.00272107 40458
KOREASAT 6              
1 37265U 10070B   22012.51713312 -.00000349  00000+0  00000+0 0  9996
2 37265   0.0096  12.5505 0001924 279.3740 122.2129  1.00270683 40477
BEIDOU 8                
1 37384U 11013A   22011.48391390 -.00000186  00000+0  00000+0 0  9998
2 37384  60.0676  55.8191 0021606 192.3500 142.8523  1.00296567 39447
INTELSAT NEW DAWN       
1 37392U 11016A   22012.06987771  .00000167  00000+0  00000+0 0  9997
2 37392   0.0210 140.2669 0000432  42.7875 346.4249  1.00274820 39300
YAHSAT 1A               
1 37393U 11016B   22011.92689944  .00000112  00000+0  00000+0 0  9993
2 37393   0.0206  47.2193 0002704 236.7071 213.6594  1.00268886 26186
SBIRS GEO-1 (USA 230)   
1 37481U 11019A   22012.43540958  .00000003  00000+0  00000+0 0  9991
2 37481   1.8265  14.9791 0001948 276.6882  43.1701  1.00272099 39120
TELSTAR 14R             
1 37602U 11021A   22011.53003858 -.00000270  00000+0  00000+0 0  9999
2 37602   0.0298  63.1966 0003120 270.7949 264.8146  1.00271258 39564
GSAT-8                  
1 37605U 11022A   22012.57679045  .00000097  00000+0  00000+0 0  9991
2 37605   0.0184  89.3122 0008462 183.9777 101.4754  1.00273420 39039
ST-2                    
1 37606U 11022B   22012.63494475 -.00000198  00000+0  00000+0 0  9994
2 37606   0.0136 355.6819 0002438 317.6976 115.2734  1.00268027 39042
CHINASAT 10 (ZX 10)     
1 37677U 11026A   22011.91986887 -.00000341  00000+0  00000+0 0  9999
2 37677   0.0765 252.2352 0003040 330.5703 330.2614  1.00271596 38774
TIANLIAN 1-02           
1 37737U 11032A   22012.28003019 -.00000042  00000+0  00000+0 0  9999
2 37737   2.7979  75.0303 0074934 357.5172 306.8977  1.00271717 38500
GSAT-12                 
1 37746U 11034A   22012.21649167  .00000136  00000+0  00000+0 0  9997
2 37746   0.9881  94.3870 0006408 352.4308 150.6974  1.00273827 38743
SES-3                   
1 37748U 11035A   22012.10447324 -.00000090  00000+0  00000+0 0  9999
2 37748   0.0443 303.7823 0002948 353.1053 109.2782  1.00272237 38487
KAZSAT-2                
1 37749U 11035B   22012.43950885 -.00000185  00000+0  00000+0 0  9992
2 37749   0.0442 203.1660 0001151 144.8550   8.5957  1.00270557 38366
BEIDOU 9                
1 37763U 11038A   22012.16627810 -.00000001  00000+0  00000+0 0  9997
2 37763  54.4724 180.1364 0087083 225.1121 221.5426  1.00266932 38436
ASTRA 1N                
1 37775U 11041A   22012.56955133  .00000132  00000+0  00000+0 0  9994
2 37775   0.0431  24.4450 0002992 322.2932 349.5032  1.00271262 38191
BSAT-3C (JCSAT-110R)    
1 37776U 11041B   22012.37235075 -.00000338  00000+0  00000+0 0  9999
2 37776   0.0080  32.5696 0000466 317.3588   5.9032  1.00272264 38309
PAKSAT-1R               
1 37779U 11042A   22012.07092432  .00000165  00000+0  00000+0 0  9995
2 37779   0.0407 191.1261 0004828 138.5057 205.5797  1.00287443 38069
CHINASAT 1A (ZX 1A)     
1 37804U 11047A   22012.44814345 -.00000325  00000+0  00000+0 0  9994
2 37804   0.0423 213.7512 0001806  77.1908 112.1108  1.00274805 37866
SES-2                   
1 37809U 11049A   22012.52896505 -.00000183  00000+0  00000+0 0  9990
2 37809   0.0445 290.1712 0003203   8.6006 276.6309  1.00271418 37784
ARABSAT-5C              
1 37810U 11049B   22012.35429657  .00000136  00000+0  00000+0 0  9990
2 37810   0.0551 355.2891 0004338 231.0436  33.0405  1.00273157 37698
EUTELSAT 7 WEST A       
1 37816U 11051A   22012.42075691 -.00000048  00000+0  00000+0 0  9995
2 37816   0.0606 357.9838 0004908 231.4404  26.5929  1.00271677 37757
QUETZSAT 1              
1 37826U 11054A   22011.55301338 -.00000231  00000+0  00000+0 0  9996
2 37826   0.0259 319.4985 0002596 333.7307 299.8828  1.00272256 37877
INTELSAT 18 (IS-18)     
1 37834U 11056A   22012.24390959  .00000065  00000+0  00000+0 0  9995
2 37834   0.0179  10.8605 0002026 288.6423  80.0045  1.00272315 37623
EUTELSAT 16A            
1 37836U 11057A   22012.21012472  .00000116  00000+0  00000+0 0  9993
2 37836   0.0656   2.9873 0005240 292.6536 267.6897  1.00273974 37579
